[{"OBJECT_NAME":"TISAT 1","OBJECT_ID":"2010-035E","EPOCH":"2026-03-09T18:10:07.877568","MEAN_MOTION":15.27628633,"ECCENTRICITY":0.00013432,"INCLINATION":98.0645,"RA_OF_ASC_NODE":6.8512,"ARG_OF_PERICENTER":159.303,"MEAN_ANOMALY":200.8262,"EPHEMERIS_TYPE":0,"CLASSIFICATION_TYPE":"U","NORAD_CAT_ID":36799,"ELEMENT_SET_NO":999,"REV_AT_EPOCH":85250,"BSTAR":0.00091004793,"MEAN_MOTION_DOT":0.00024554,"MEAN_MOTION_DDOT":0},{"OBJECT_NAME":"STARLINK-30107","OBJECT_ID":"2023-056B","EPOCH":"2026-03-09T15:47:04.884288","MEAN_MOTION":15.27572483,"ECCENTRICITY":0.00010754,"INCLINATION":43.0025,"RA_OF_ASC_NODE":191.3282,"ARG_OF_PERICENTER":253.28,"MEAN_ANOMALY":106.7934,"EPHEMERIS_TYPE":0,"CLASSIFICATION_TYPE":"U","NORAD_CAT_ID":56287,"ELEMENT_SET_NO":999,"REV_AT_EPOCH":16029,"BSTAR":5.08637e-6,"MEAN_MOTION_DOT":-1.22e-6,"MEAN_MOTION_DDOT":0}]
